LANDSAT 9               
1 49260U 21088A   23182.78888062  .00000381  00000+0  94665-4 0  9998
2 49260  98.2293 252.5034 0001180  94.2111 265.9222 14.57095859 93514
